FENGYUN 3A              
1 32958U 08026A   18063.13912989  .00000031  00000-0  33808-4 0  9993
2 32958  98.3882  83.5236 0008399 243.8079 116.2232 14.19694760506214
FENGYUN 2E              
1 33463U 08066A   18062.93587936 -.00000227  00000-0  00000+0 0  9997
2 33463   2.6719  68.4223 0004452 238.7578 278.0100  1.00274195 33739
NOAA 19                 
1 33591U 09005A   18062.93239173  .00000085  00000-0  71477-4 0  9992
2 33591  99.1306  38.9345 0012978 262.3024  97.6674 14.12258389467053
GOES 14                 
1 35491U 09033A   18062.84080490 -.00000120  00000-0  00000+0 0  9990
2 35491   0.0391 123.8183 0007839 123.1975 112.8686  1.00271984 31804
METEOR-M 1              
1 35865U 09049A   18063.50033753  .00000013  00000-0  24713-4 0  9998
2 35865  98.4106  78.3845 0003512 103.6032 256.5537 14.22139118439100
GOES 15                 
1 36411U 10008A   18062.92694251  .00000062  00000-0  00000+0 0  9996
2 36411   0.0248 149.9790 0000576 194.5943  15.3917  1.00276344 29333
COMS 1                  
1 36744U 10032A   18062.81229875 -.00000372  00000-0  00000-0 0  9992
2 36744   0.0117 332.8987 0001096  21.7891 227.4477  1.00271815 20739
FENGYUN 3B              
1 37214U 10059A   18062.81435439  .00000003  00000-0  24285-4 0  9994
2 37214  98.9337  26.8339 0017763 118.4767 241.8204 14.15876831379281
SUOMI NPP               
1 37849U 11061A   18062.96226958  .00000031  00000-0  35255-4 0  9992
2 37849  98.7290   2.8935 0001597 100.6645 323.3200 14.19540903328955
FENGYUN 2F              
1 38049U 12002A   18062.86408773 -.00000382  00000-0  00000+0 0  9992
2 38049   2.2436  78.2173 0001557 238.6191 267.5116  1.00261169 22535
METEOSAT-10 (MSG-3)     
1 38552U 12035B   18062.52032022  .00000067  00000-0  00000-0 0  9990
2 38552   0.8859  24.7931 0000694 278.9897  56.1783  1.00401585 20860
METOP-B                 
1 38771U 12049A   18062.93377639  .00000002  00000-0  21018-4 0  9994
2 38771  98.6865 124.1232 0001016 163.5395 314.6665 14.21496557283182
FENGYUN 3C              
1 39260U 13052A   18063.18927493 -.00000029  00000-0  64149-5 0  9993
2 39260  98.6155 131.4644 0001059  63.2641 296.8648 14.19669711230278
METEOR-M 2              
1 40069U 14037A   18063.47304316 -.00000045  00000-0 -10264-5 0  9999
2 40069  98.6177 117.2879 0005595 170.3819 189.7468 14.20649689189513
HIMAWARI-8              
1 40267U 14060A   18062.16239445 -.00000304  00000-0  00000-0 0  9999
2 40267   0.0096 145.9955 0000928 198.5945  15.3731  1.00273487 12403
FENGYUN 2G              
1 40367U 14090A   18062.99873875 -.00000356  00000-0  00000+0 0  9991
2 40367   0.2377 143.9908 0001591 155.7381 325.8056  1.00281938 11688
METEOSAT-11 (MSG-4)     
1 40732U 15034A   18062.16772392 -.00000031  00000-0  00000-0 0  9998
2 40732   1.4247 222.4447 0001453 109.4894 249.4594  1.00265481  9686
ELEKTRO-L 2             
1 41105U 15074A   18063.58001325 -.00000122  00000-0  00000+0 0  9995
2 41105   0.0723 290.7357 0000932  83.2590  72.9896  1.00273601  8176
HIMAWARI-9              
1 41836U 16064A   18062.16211081 -.00000304  00000-0  00000+0 0  9993
2 41836   0.0112 101.9668 0001003 241.8999  16.1301  1.00268903  4943
GOES 16                 
1 41866U 16071A   18061.76309300 -.00000277  00000-0  00000-0 0  9991
2 41866   0.0080 178.1536 0001606 203.0268 338.8262  1.00269674  4742
FENGYUN 4A              
1 41882U 16077A   18062.83382609 -.00000357  00000-0  00000-0 0  9996
2 41882   0.0994  91.7132 0009103  40.8822  73.7884  1.00272786  4629
CYGFM05                 
1 41884U 16078A   18063.51918682  .00000402  00000-0  23410-4 0  9995
2 41884  34.9556 210.1585 0015561 146.7679 213.4012 15.13898640 67314
CYGFM04                 
1 41885U 16078B   18063.45236993  .00000536  00000-0  30098-4 0  9995
2 41885  34.9488 208.4303 0013790 148.1375 212.0173 15.14531426 67329
CYGFM02                 
1 41886U 16078C   18062.84184897  .00000411  00000-0  23654-4 0  9995
2 41886  34.9580 213.2297 0014413 140.8032 219.3725 15.14289007 67228
CYGFM01                 
1 41887U 16078D   18062.80462212  .00000454  00000-0  26264-4 0  9999
2 41887  34.9523 214.6404 0015909 141.4166 218.7684 15.13853718 67207
CYGFM08                 
1 41888U 16078E   18063.47784464  .00000429  00000-0  24786-4 0  9999
2 41888  34.9494 209.6124 0015109 148.0856 212.0773 15.14065138 67308
CYGFM06                 
1 41889U 16078F   18062.82517962  .00000389  00000-0  22353-4 0  9998
2 41889  34.9574 212.1202 0013424 140.7561 219.4125 15.14531278 67220
CYGFM07                 
1 41890U 16078G   18063.53002877  .00000433  00000-0  24678-4 0  9995
2 41890  34.9513 207.2454 0013206 148.7979 211.3519 15.14538788 67331
CYGFM03                 
1 41891U 16078H   18062.79958362  .00000385  00000-0  22142-4 0  9992
2 41891  34.9545 211.8120 0012615 141.7750 218.3857 15.14538482 67222
FENGYUN 3D              
1 43010U 17072A   18063.44935933 -.00000015  00000-0  13213-4 0  9994
2 43010  98.6655   6.4084 0001617  14.0417 346.0797 14.19690622 15577
NOAA 20                 
1 43013U 17073A   18062.91471177 -.00000041  00000-0  11936-5 0  9994
2 43013  98.7169   2.8084 0000999  99.0118 261.1171 14.19552545 14971
APRIZESAT 2             
1 28366U 04025A   18063.19893790  .00000020  00000-0  20459-4 0  9996
2 28366  98.3319 333.8594 0107637 352.8422   7.1222 14.36634272716922
SAUDICOMSAT 1           
1 28369U 04025D   18062.79252291  .00000033  00000-0  19151-4 0  9990
2 28369  98.2310  14.3022 0032595 306.2157  53.6026 14.52416701724414
SAUDICOMSAT 2           
1 28370U 04025E   18063.08678632  .00000031  00000-0  20350-4 0  9997
2 28370  98.3335   8.6780 0059138  79.2745 281.5098 14.47357924722057
APRIZESAT 1             
1 28372U 04025G   18063.46127162  .00000020  00000-0  16979-4 0  9998
2 28372  98.2892  11.4689 0046791  15.1600 345.0984 14.49535984723277
NANOSAT-1               
1 28493U 04049B   18062.80070272  .00000075  00000-0  19477-4 0  9990
2 28493  98.1729 139.6849 0003306 247.5861 112.4997 14.73397925709143
SAUDICOMSAT 7           
1 31119U 07012C   18063.42782510  .00000044  00000-0  18146-4 0  9994
2 31119  97.9879  21.9724 0059395 324.5592  35.1669 14.61646369579975
SAUDICOMSAT 6           
1 31121U 07012E   18062.82369479  .00000050  00000-0  20273-4 0  9996
2 31121  98.0520  14.4576 0077537  35.9380 324.6999 14.58445042578647
SAUDICOMSAT 5           
1 31124U 07012H   18062.85379239  .00000054  00000-0  19544-4 0  9990
2 31124  97.9485  25.5513 0050447 290.3920  69.1868 14.63340120580523
SAUDICOMSAT 3           
1 31125U 07012J   18062.94831525  .00000072  00000-0  22050-4 0  9998
2 31125  97.9080  30.0684 0042013 254.5295 105.1267 14.65067862581113
SAUDICOMSAT 4           
1 31127U 07012L   18062.93598575  .00000049  00000-0  19658-4 0  9998
2 31127  98.0195  18.3175 0068175 359.1190   0.9879 14.60157668579253
APRIZESAT 4             
1 35684U 09041D   18062.81851628  .00000071  00000-0  17051-4 0  9992
2 35684  98.1619  13.3023 0046919 343.1781  73.8891 14.79109819463457
APRIZESAT 3             
1 35686U 09041F   18062.94031289  .00000044  00000-0  11798-4 0  9993
2 35686  98.2780  78.4790 0071877 249.3547 109.9949 14.87180177465744
AISSAT 1                
1 36797U 10035C   18063.38280606  .00000178  00000-0  26919-4 0  9999
2 36797  98.0602 185.3460 0010324 222.2749 137.7670 14.85991355413946
